STARLINK-36885          
1 68049U 26041K   26067.58335648 -.01453629  63064-3 -34166-2 0  9999
2 68049  53.1596  67.8846 0000640  66.0967 180.3517 15.96286996  2199
STARLINK-36945          
1 68050U 26041L   26067.58335648 -.01456149  63176-3 -34480-2 0  9994
2 68050  53.1596  67.8889 0000554  73.4122 170.9756 15.96151608  2198
STARLINK-35911          
1 68051U 26041M   26067.58335648 -.01454048  63186-3 -33923-2 0  9993
2 68051  53.1596  67.8804 0000491  70.2802 178.3671 15.96423302  2153
STARLINK-35808          
1 68052U 26041N   26067.58335648 -.01445375  62581-3 -33482-2 0  9995
2 68052  53.1593  67.8759 0000587  66.4584 184.1032 15.96551959  2156
STARLINK-36919          
1 68053U 26041P   26067.58335648 -.01455416  63469-3 -33464-2 0  9999
2 68053  53.1595  67.8717 0000503  67.9351 184.7244 15.96689621  2192
STARLINK-36924          
1 68054U 26041Q   26067.58335648 -.01440489  62444-3 -32666-2 0  9999
2 68054  53.1594  67.8644 0000550  66.4699 189.8662 15.96938486  2198
STARLINK-35998          
1 68055U 26041R   26067.58335648 -.01442203  62497-3 -32938-2 0  9996
2 68055  53.1595  67.8678 0000500  68.1885 186.2319 15.96809987  2157
STARLINK-36845          
1 68056U 26041S   26067.58335648 -.01444093  62813-3 -32521-2 0  9996
2 68056  53.1592  67.8605 0000467  65.1814 193.0170 15.97065763  2198
STARLINK-36954          
1 68057U 26041T   26067.58335648 -.01443637  62860-3 -32282-2 0  9996
2 68057  53.1594  67.8563 0000468  65.1919 194.9103 15.97193553  2196
STARLINK-36899          
1 68058U 26041U   26067.58335648 -.01437114  62416-3 -31933-2 0  9999
2 68058  53.1594  67.8532 0000513  68.1095 193.6232 15.97307121  2199
STARLINK-36917          
1 68059U 26041V   26067.58335648 -.01439325  62682-3 -31737-2 0  9993
2 68059  53.1592  67.8489 0000633  67.0141 196.8734 15.97446331  2191
STARLINK-36959          
1 68060U 26041W   26067.58335648 -.01425310  61645-3 -31226-2 0  9995
2 68060  53.1593  67.8447 0000485  61.3478 204.2226 15.97560766  2192
STARLINK-36915          
1 68061U 26041X   26067.58335648 -.01426652  61831-3 -31040-2 0  9997
2 68061  53.1592  67.8409 0000499  66.0849 201.3863 15.97685284  2197
STARLINK-36952          
1 68062U 26041Y   26067.58335648 -.01421567  61514-3 -30702-2 0  9990
2 68062  53.1593  67.8371 0000465  65.1489 204.3617 15.97817439  2199
STARLINK-37000          
1 68063U 26041Z   26067.58335648 -.01420741  61535-3 -30457-2 0  9994
2 68063  53.1593  67.8323 0000480  65.8032 205.7796 15.97950622  2190
STARLINK-36996          
1 68064U 26041AA  26067.58335648 -.01421318  61667-3 -30245-2 0  9997
2 68064  53.1593  67.8281 0000549  61.6863 212.0067 15.98083182  2197
