[{"OBJECT_NAME":"STARLINK-36885","OBJECT_ID":"2026-041K","EPOCH":"2026-03-08T14:00:01.999872","MEAN_MOTION":15.96286996,"ECCENTRICITY":6.409e-5,"INCLINATION":53.1596,"RA_OF_ASC_NODE":67.8846,"ARG_OF_PERICENTER":66.0967,"MEAN_ANOMALY":180.3517,"EPHEMERIS_TYPE":0,"CLASSIFICATION_TYPE":"U","NORAD_CAT_ID":68049,"ELEMENT_SET_NO":999,"REV_AT_EPOCH":219,"BSTAR":-0.0034166486,"MEAN_MOTION_DOT":-0.01453629,"MEAN_MOTION_DDOT":0.00063063617},{"OBJECT_NAME":"STARLINK-36945","OBJECT_ID":"2026-041L","EPOCH":"2026-03-08T14:00:01.999872","MEAN_MOTION":15.96151608,"ECCENTRICITY":5.549e-5,"INCLINATION":53.1596,"RA_OF_ASC_NODE":67.8889,"ARG_OF_PERICENTER":73.4122,"MEAN_ANOMALY":170.9756,"EPHEMERIS_TYPE":0,"CLASSIFICATION_TYPE":"U","NORAD_CAT_ID":68050,"ELEMENT_SET_NO":999,"REV_AT_EPOCH":219,"BSTAR":-0.0034480353,"MEAN_MOTION_DOT":-0.01456149,"MEAN_MOTION_DDOT":0.00063175804},{"OBJECT_NAME":"STARLINK-35911","OBJECT_ID":"2026-041M","EPOCH":"2026-03-08T14:00:01.999872","MEAN_MOTION":15.96423302,"ECCENTRICITY":4.911e-5,"INCLINATION":53.1596,"RA_OF_ASC_NODE":67.8804,"ARG_OF_PERICENTER":70.2802,"MEAN_ANOMALY":178.3671,"EPHEMERIS_TYPE":0,"CLASSIFICATION_TYPE":"U","NORAD_CAT_ID":68051,"ELEMENT_SET_NO":999,"REV_AT_EPOCH":215,"BSTAR":-0.003392323,"MEAN_MOTION_DOT":-0.01454048,"MEAN_MOTION_DDOT":0.00063185534},{"OBJECT_NAME":"STARLINK-35808","OBJECT_ID":"2026-041N","EPOCH":"2026-03-08T14:00:01.999872","MEAN_MOTION":15.96551959,"ECCENTRICITY":5.876e-5,"INCLINATION":53.1593,"RA_OF_ASC_NODE":67.8759,"ARG_OF_PERICENTER":66.4584,"MEAN_ANOMALY":184.1032,"EPHEMERIS_TYPE":0,"CLASSIFICATION_TYPE":"U","NORAD_CAT_ID":68052,"ELEMENT_SET_NO":999,"REV_AT_EPOCH":215,"BSTAR":-0.003348153,"MEAN_MOTION_DOT":-0.01445375,"MEAN_MOTION_DDOT":0.0006258097},{"OBJECT_NAME":"STARLINK-36919","OBJECT_ID":"2026-041P","EPOCH":"2026-03-08T14:00:01.999872","MEAN_MOTION":15.96689621,"ECCENTRICITY":5.033e-5,"INCLINATION":53.1595,"RA_OF_ASC_NODE":67.8717,"ARG_OF_PERICENTER":67.9351,"MEAN_ANOMALY":184.7244,"EPHEMERIS_TYPE":0,"CLASSIFICATION_TYPE":"U","NORAD_CAT_ID":68053,"ELEMENT_SET_NO":999,"REV_AT_EPOCH":219,"BSTAR":-0.0033463899,"MEAN_MOTION_DOT":-0.01455416,"MEAN_MOTION_DDOT":0.0006346869},{"OBJECT_NAME":"STARLINK-36924","OBJECT_ID":"2026-041Q","EPOCH":"2026-03-08T14:00:01.999872","MEAN_MOTION":15.96938486,"ECCENTRICITY":5.501e-5,"INCLINATION":53.1594,"RA_OF_ASC_NODE":67.8644,"ARG_OF_PERICENTER":66.4699,"MEAN_ANOMALY":189.8662,"EPHEMERIS_TYPE":0,"CLASSIFICATION_TYPE":"U","NORAD_CAT_ID":68054,"ELEMENT_SET_NO":999,"REV_AT_EPOCH":219,"BSTAR":-0.0032666451,"MEAN_MOTION_DOT":-0.01440489,"MEAN_MOTION_DDOT":0.00062444006},{"OBJECT_NAME":"STARLINK-35998","OBJECT_ID":"2026-041R","EPOCH":"2026-03-08T14:00:01.999872","MEAN_MOTION":15.96809987,"ECCENTRICITY":5.002e-5,"INCLINATION":53.1595,"RA_OF_ASC_NODE":67.8678,"ARG_OF_PERICENTER":68.1885,"MEAN_ANOMALY":186.2319,"EPHEMERIS_TYPE":0,"CLASSIFICATION_TYPE":"U","NORAD_CAT_ID":68055,"ELEMENT_SET_NO":999,"REV_AT_EPOCH":215,"BSTAR":-0.0032937806,"MEAN_MOTION_DOT":-0.01442203,"MEAN_MOTION_DDOT":0.00062496621},{"OBJECT_NAME":"STARLINK-36845","OBJECT_ID":"2026-041S","EPOCH":"2026-03-08T14:00:01.999872","MEAN_MOTION":15.97065763,"ECCENTRICITY":4.678e-5,"INCLINATION":53.1592,"RA_OF_ASC_NODE":67.8605,"ARG_OF_PERICENTER":65.1814,"MEAN_ANOMALY":193.017,"EPHEMERIS_TYPE":0,"CLASSIFICATION_TYPE":"U","NORAD_CAT_ID":68056,"ELEMENT_SET_NO":999,"REV_AT_EPOCH":219,"BSTAR":-0.0032520653,"MEAN_MOTION_DOT":-0.01444093,"MEAN_MOTION_DDOT":0.00062812989},{"OBJECT_NAME":"STARLINK-36954","OBJECT_ID":"2026-041T","EPOCH":"2026-03-08T14:00:01.999872","MEAN_MOTION":15.97193553,"ECCENTRICITY":4.688e-5,"INCLINATION":53.1594,"RA_OF_ASC_NODE":67.8563,"ARG_OF_PERICENTER":65.1919,"MEAN_ANOMALY":194.9103,"EPHEMERIS_TYPE":0,"CLASSIFICATION_TYPE":"U","NORAD_CAT_ID":68057,"ELEMENT_SET_NO":999,"REV_AT_EPOCH":219,"BSTAR":-0.0032281931,"MEAN_MOTION_DOT":-0.01443637,"MEAN_MOTION_DDOT":0.0006286028},{"OBJECT_NAME":"STARLINK-36899","OBJECT_ID":"2026-041U","EPOCH":"2026-03-08T14:00:01.999872","MEAN_MOTION":15.97307121,"ECCENTRICITY":5.136e-5,"INCLINATION":53.1594,"RA_OF_ASC_NODE":67.8532,"ARG_OF_PERICENTER":68.1095,"MEAN_ANOMALY":193.6232,"EPHEMERIS_TYPE":0,"CLASSIFICATION_TYPE":"U","NORAD_CAT_ID":68058,"ELEMENT_SET_NO":999,"REV_AT_EPOCH":219,"BSTAR":-0.0031933153,"MEAN_MOTION_DOT":-0.01437114,"MEAN_MOTION_DDOT":0.00062415704},{"OBJECT_NAME":"STARLINK-36917","OBJECT_ID":"2026-041V","EPOCH":"2026-03-08T14:00:01.999872","MEAN_MOTION":15.97446331,"ECCENTRICITY":6.337e-5,"INCLINATION":53.1592,"RA_OF_ASC_NODE":67.8489,"ARG_OF_PERICENTER":67.0141,"MEAN_ANOMALY":196.8734,"EPHEMERIS_TYPE":0,"CLASSIFICATION_TYPE":"U","NORAD_CAT_ID":68059,"ELEMENT_SET_NO":999,"REV_AT_EPOCH":219,"BSTAR":-0.0031737304,"MEAN_MOTION_DOT":-0.01439325,"MEAN_MOTION_DDOT":0.00062682464},{"OBJECT_NAME":"STARLINK-36959","OBJECT_ID":"2026-041W","EPOCH":"2026-03-08T14:00:01.999872","MEAN_MOTION":15.97560766,"ECCENTRICITY":4.851e-5,"INCLINATION":53.1593,"RA_OF_ASC_NODE":67.8447,"ARG_OF_PERICENTER":61.3478,"MEAN_ANOMALY":204.2226,"EPHEMERIS_TYPE":0,"CLASSIFICATION_TYPE":"U","NORAD_CAT_ID":68060,"ELEMENT_SET_NO":999,"REV_AT_EPOCH":219,"BSTAR":-0.0031225925,"MEAN_MOTION_DOT":-0.0142531,"MEAN_MOTION_DDOT":0.00061644635},{"OBJECT_NAME":"STARLINK-36915","OBJECT_ID":"2026-041X","EPOCH":"2026-03-08T14:00:01.999872","MEAN_MOTION":15.97685284,"ECCENTRICITY":4.997e-5,"INCLINATION":53.1592,"RA_OF_ASC_NODE":67.8409,"ARG_OF_PERICENTER":66.0849,"MEAN_ANOMALY":201.3863,"EPHEMERIS_TYPE":0,"CLASSIFICATION_TYPE":"U","NORAD_CAT_ID":68061,"ELEMENT_SET_NO":999,"REV_AT_EPOCH":219,"BSTAR":-0.0031040463,"MEAN_MOTION_DOT":-0.01426652,"MEAN_MOTION_DDOT":0.00061831434},{"OBJECT_NAME":"STARLINK-36952","OBJECT_ID":"2026-041Y","EPOCH":"2026-03-08T14:00:01.999872","MEAN_MOTION":15.97817439,"ECCENTRICITY":4.651e-5,"INCLINATION":53.1593,"RA_OF_ASC_NODE":67.8371,"ARG_OF_PERICENTER":65.1489,"MEAN_ANOMALY":204.3617,"EPHEMERIS_TYPE":0,"CLASSIFICATION_TYPE":"U","NORAD_CAT_ID":68062,"ELEMENT_SET_NO":999,"REV_AT_EPOCH":219,"BSTAR":-0.0030702091,"MEAN_MOTION_DOT":-0.01421567,"MEAN_MOTION_DDOT":0.00061514336},{"OBJECT_NAME":"STARLINK-37000","OBJECT_ID":"2026-041Z","EPOCH":"2026-03-08T14:00:01.999872","MEAN_MOTION":15.97950622,"ECCENTRICITY":4.809e-5,"INCLINATION":53.1593,"RA_OF_ASC_NODE":67.8323,"ARG_OF_PERICENTER":65.8032,"MEAN_ANOMALY":205.7796,"EPHEMERIS_TYPE":0,"CLASSIFICATION_TYPE":"U","NORAD_CAT_ID":68063,"ELEMENT_SET_NO":999,"REV_AT_EPOCH":219,"BSTAR":-0.0030457331,"MEAN_MOTION_DOT":-0.01420741,"MEAN_MOTION_DDOT":0.00061535149},{"OBJECT_NAME":"STARLINK-36996","OBJECT_ID":"2026-041AA","EPOCH":"2026-03-08T14:00:01.999872","MEAN_MOTION":15.98083182,"ECCENTRICITY":5.495e-5,"INCLINATION":53.1593,"RA_OF_ASC_NODE":67.8281,"ARG_OF_PERICENTER":61.6863,"MEAN_ANOMALY":212.0067,"EPHEMERIS_TYPE":0,"CLASSIFICATION_TYPE":"U","NORAD_CAT_ID":68064,"ELEMENT_SET_NO":999,"REV_AT_EPOCH":219,"BSTAR":-0.0030245329,"MEAN_MOTION_DOT":-0.01421318,"MEAN_MOTION_DDOT":0.00061666866}]
